0181P         2014 06  2.8468  1.157532  0.700715  336.3496   35.4015   17.4935  20180124  11.5  4.0  181P/Shoemaker-Levy                                      MPC 89012
0182P         2017 04 11.6633  1.007768  0.659688   53.8609   72.7898   16.2446  20180124  18.0  4.0  182P/LONEOS                                              MPC 88331
0183P         2017 11 11.5373  3.872379  0.137462  161.2862    5.8468   18.7512  20180124  12.5  2.0  183P/Korlevic-Juric                                      NK   2735
0184P         2020 10 25.4718  1.685295  0.554055  186.6005  173.5680    4.5929  20180124  13.5  4.0  184P/Lovas                                               MPC105242
0185P         2018 01 27.6743  0.933819  0.698933  181.9192  214.0991   13.9942  20180124  15.0  4.0  185P/Petriew                                             MPC 94676
0186P         2019 05  6.1266  4.389451  0.122333  283.7612  327.2413   28.4255  20180124   7.5  4.0  186P/Garradd                                             MPC 10028
0187P         2018 05 28.1029  3.880372  0.157206  133.3546  110.0930   13.5834  20180124   9.0  4.0  187P/LINEAR                                              MPC104795
0188P         2017 02 16.9001  2.564811  0.414706   26.7378  358.9747   10.5110  20180124  11.5  4.0  188P/LINEAR-Mueller                                      MPC106349
0189P         2017 08  5.9432  1.213374  0.588294   16.2229  281.7485   20.0659  20180124  19.0  4.0  189P/NEAT                                                MPC106349
0190P         2016 04  7.6748  2.033613  0.520351   50.4056  335.5499    2.1727  20180124  13.0  4.0  190P/Mueller                                             MPC 75724
0191P         2021 03  4.3483  2.146613  0.404722  283.0000   99.9426    8.6527  20180124  13.0  4.0  191P/McNaught                                            MPC 92277
0192P         2024 05 28.6586  1.478537  0.771760  312.8867   51.6741   24.5122  20180124  15.0  4.0  192P/Shoemaker-Levy                                      MPC 75724
0193P         2014 11 23.7788  2.167124  0.393679    8.3622  335.1942   10.6867  20180124  14.0  4.0  193P/LINEAR-NEAT                                         MPC 91618
0194P         2016 03  2.2567  1.694980  0.575688  130.6162  351.9474   11.1349  20180124  16.0  4.0  194P/LINEAR                                              MPC 98566
0195P         2025 07 29.6344  4.446376  0.314641  249.7286  243.0904   36.3436  20180124   8.5  4.0  195P/Hill                                                MPC 75724
0196P         2015 06 13.9526  2.151967  0.431899   12.4200   24.2459   19.3705  20180124  13.5  4.0  196P/Tichy                                               MPC 92985
0197P         2018 01 28.8386  1.059903  0.630141  188.6837   66.3936   25.5564  20180124  16.5  2.0  197P/LINEAR                                              MPC 94676
0198P         2018 12 13.9693  2.005678  0.443096   69.2551  358.3448    1.3392  20180124  12.5  4.0  198P/ODAS                                                MPC 65937
0199P         2023 08  8.1704  2.923857  0.505043  191.4280   92.3851   24.9258  20180124  10.0  4.0  199P/Shoemaker                                           MPC 75725
0200P         2019 07 28.4127  3.297913  0.331266  133.9463  234.8025   12.1060  20180124   9.0  4.0  200P/Larsen                                              MPC 75725
0201P         2015 01 17.2587  1.314256  0.618321   24.7453   35.1522    7.0445  20180124  14.0  4.0  201P/LONEOS                                              MPC 93588
0202P         2016 06 12.7200  2.523353  0.332824  256.2068  194.5170    2.1903  20180124  13.5  4.0  202P/Scotti                                              MPC103849
0203P         2020 03  5.8286  3.197493  0.314693  155.0252  290.3748    2.9737  20180124  14.5  2.0  203P/Korlevic                                            MPC 75725
0204P         2015 12 11.6993  1.921028  0.473715  354.9652  108.8964    6.5971  20180124  14.0  4.0  204P/LINEAR-NEAT                                         MPC 98566
0205P         2015 05 13.7606  1.535442  0.566883  154.1691  179.6126   15.2866  20180124  13.0  4.0  205P/Giacobini                                           MPC 98566
0206P         2021 03  2.7544  1.549021  0.554640  189.2476  202.8702   34.2440  20180124  19.0  4.0  206P/Barnard-Boattini                                    MPC 75725
0207P         2016 07  1.2828  0.935917  0.758361  271.2270  200.5364   10.1609  20180124  16.0  4.0  207P/NEAT                                                MPC 75725
0208P         2016 07  1.5876  2.543488  0.372195  310.4385   36.4117    4.4080  20180124  12.5  4.0  208P/McMillan                                            MPC101100
0209P         2019 06 12.7631  0.967793  0.673312  152.4753   62.7719   21.2578  20180124  17.0  2.0  209P/LINEAR                                              MPC 90771
0210P         2020 04  8.5452  0.532045  0.832185  345.8160   93.8275   10.2394  20180124  13.5  4.0  210P/Christensen                                         MPC105242
0211P         2016 01 26.8119  2.345747  0.340272    4.2848  117.1507   18.8922  20180124  12.5  4.0  211P/Hill                                                MPC 96868
0212P         2016 09 10.4933  1.642221  0.580667   15.0924   98.7947   22.4529  20180124  17.0  2.0  212P/NEAT                                                MPC104795
0213P         2017 09 24.4043  1.983428  0.407582    5.5545  311.3263   10.3776  20180124  10.5  4.0  213P/Van Ness                                            MPC107687
0214P         2015 11 12.6148  1.853340  0.487040  190.2879  348.2721   15.2022  20180124  13.0  4.0  214P/LINEAR                                              MPC 92986
0215P         2019 11  6.6160  3.609782  0.172991  260.4156   56.7305   10.5804  20180124  11.0  4.0  215P/NEAT                                                MPC102102
0216P         2016 05 30.7613  2.148166  0.445329  151.4705  359.8521    9.0465  20180124  13.0  4.0  216P/LINEAR                                              MPC 10028
0217P         2017 07 16.5567  1.235306  0.687737  246.9459  125.4523   12.8568  20180124  12.0  4.0  217P/LINEAR                                              MPC104795
0218P         2020 10  3.4707  1.170411  0.621969   59.6864  176.0216    2.7254  20180124  16.0  4.0  218P/LINEAR                                              MPC105242
0219P         2017 02 20.5828  2.364986  0.352651  107.3941  231.0227   11.5295  20180124  11.0  4.0  219P/LINEAR                                              MPC 10028
0220P         2015 06 13.4750  1.553180  0.501347  180.6054  150.1097    8.1262  20180124  15.0  4.0  220P/McNaught                                            MPC105242
0221P         2015 07 12.0064  1.756380  0.492363   39.9398  229.7488   11.4284  20180124  14.5  4.0  221P/LINEAR                                              MPC 93589
0222P         2019 06  4.7420  0.825292  0.715188  346.2218    6.8844    5.1105  20180124  20.0  4.0  222P/LINEAR                                              MPC 92277
0223P         2019 01 27.3422  2.430862  0.415115   37.8400  346.7925   27.0166  20180124  12.0  4.0  223P/Skiff                                               MPC102102
0224P         2016 05 24.8020  1.997745  0.415398   16.5356   40.4681   13.4270  20180124  15.5  4.0  224P/LINEAR-NEAT                                         MPC 75727
0225P         2016 08 16.8523  1.324997  0.637321    3.9213   14.1831   21.3345  20180124  18.0  4.0  225P/LINEAR                                              MPC 75727
0226P         2016 09  5.0480  1.776627  0.528613  341.1152   54.0062   44.0047  20180124  12.5  4.0  226P/Pigott-LINEAR-Kowalski                              MPC106349
0227P         2017 06 22.2096  1.787801  0.501492   90.2679   49.7990    6.5272  20180124  16.5  2.0  227P/Catalina-LINEAR                                     MPC102956
0228P         2020 03 10.5443  3.434827  0.177648  115.2936   31.0098    7.9111  20180124  14.5  2.0  228P/LINEAR                                              MPC107687
0229P         2017 05 20.6590  2.455725  0.376040  224.1233  157.9035   26.0674  20180124  13.0  4.0  229P/Gibbs                                               MPC106349
0230P         2015 11 20.0806  1.480220  0.565413  310.5103  110.8774   14.7092  20180124  13.0  4.0  230P/LINEAR                                              MPC 95735
0231P         2019 06 13.7473  3.023018  0.247984   42.6473  133.0331   12.3312  20180124  14.5  2.0  231P/LINEAR-NEAT                                         MPC102102
0232P         2019 04  6.6762  2.984054  0.335019   53.5776   56.0312   14.6308  20180124  11.5  4.0  232P/Hill                                                MPC 75728
0233P         2015 06 25.1415  1.783643  0.411277   27.1210   74.9279   11.2845  20180124  15.0  4.0  233P/La Sagra                                            MPC 92986
0234P         2017 06  1.1691  2.847024  0.253710  357.9833  179.7037   11.5191  20180124  12.0  4.0  234P/LINEAR                                              MPC103849
0235P         2018 03 17.4801  2.732215  0.315354  333.7464  204.4600    8.9040  20180124  12.0  4.0  235P/LINEAR                                              MPC 75728
0236P         2017 11 20.1498  1.837487  0.507868  119.2654  245.6705   16.3334  20180124  14.0  4.0  236P/LINEAR                                              MPC107688
0237P         2016 10 11.7804  1.985003  0.434666   25.0810  245.4244   14.0239  20180124  14.5  2.0  237P/LINEAR                                              MPC107688
0238P         2016 10 22.3631  2.365631  0.252319  324.8686   51.6497    1.2645  20180124  14.5  4.0  238P/Read                                                MPC107688
0239P         2019 01 10.1553  1.649156  0.631144  220.3873  255.9123   11.3050  20180124  17.5  2.0  239P/LINEAR                                              MPC 75729
